{
 "type": "FeatureCollection",
 "name": "farmfit demo parcels",
 "features": [
  {
   "type": "Feature",
   "properties": {
    "id": "DEMO-01",
    "name": "Demo plot 01",
    "district": "Al Shahaniya (approx.)",
    "source": "DEMO - illustrative geometry, not cadastral"
   },
   "geometry": {
    "type": "Polygon",
    "coordinates": [
     [
      [
       51.21,
       25.39
      ],
      [
       51.2110154,
       25.390036
      ],
      [
       51.2109756,
       25.3904676
      ],
      [
       51.2099801,
       25.3904317
      ],
      [
       51.21,
       25.39
      ]
     ]
    ]
   }
  },
  {
   "type": "Feature",
   "properties": {
    "id": "DEMO-02",
    "name": "Demo plot 02",
    "district": "Al Shahaniya (approx.)",
    "source": "DEMO - illustrative geometry, not cadastral"
   },
   "geometry": {
    "type": "Polygon",
    "coordinates": [
     [
      [
       51.2138,
       25.3922
      ],
      [
       51.214895,
       25.392146
      ],
      [
       51.2151439,
       25.3926047
      ],
      [
       51.2143973,
       25.3930094
      ],
      [
       51.2137204,
       25.3926946
      ],
      [
       51.2138,
       25.3922
      ]
     ]
    ]
   }
  },
  {
   "type": "Feature",
   "properties": {
    "id": "DEMO-03",
    "name": "Demo plot 03 (L-shaped)",
    "district": "Al Shahaniya (approx.)",
    "source": "DEMO - illustrative geometry, not cadastral"
   },
   "geometry": {
    "type": "Polygon",
    "coordinates": [
     [
      [
       51.2068,
       25.3936
      ],
      [
       51.2083928,
       25.3936
      ],
      [
       51.2083928,
       25.3940047
      ],
      [
       51.2073973,
       25.3940047
      ],
      [
       51.2073973,
       25.3946792
      ],
      [
       51.2068,
       25.3946792
      ],
      [
       51.2068,
       25.3936
      ]
     ]
    ]
   }
  },
  {
   "type": "Feature",
   "properties": {
    "id": "DEMO-04",
    "name": "Demo plot 04",
    "district": "Al Shahaniya (approx.)",
    "source": "DEMO - illustrative geometry, not cadastral"
   },
   "geometry": {
    "type": "Polygon",
    "coordinates": [
     [
      [
       51.2105,
       25.3862
      ],
      [
       51.2124909,
       25.3862
      ],
      [
       51.2123913,
       25.3871893
      ],
      [
       51.2105995,
       25.3870544
      ],
      [
       51.2105,
       25.3862
      ]
     ]
    ]
   }
  },
  {
   "type": "Feature",
   "properties": {
    "id": "DEMO-05",
    "name": "Demo plot 05",
    "district": "Al Khor hinterland (approx.)",
    "source": "DEMO - illustrative geometry, not cadastral"
   },
   "geometry": {
    "type": "Polygon",
    "coordinates": [
     [
      [
       51.5,
       25.7
      ],
      [
       51.5005988,
       25.7
      ],
      [
       51.5005789,
       25.7004676
      ],
      [
       51.50002,
       25.7004497
      ],
      [
       51.5,
       25.7
      ]
     ]
    ]
   }
  },
  {
   "type": "Feature",
   "properties": {
    "id": "DEMO-06",
    "name": "Demo plot 06",
    "district": "Al Shamal (approx.)",
    "source": "DEMO - illustrative geometry, not cadastral"
   },
   "geometry": {
    "type": "Polygon",
    "coordinates": [
     [
      [
       51.18,
       26.0
      ],
      [
       51.1819011,
       25.9999101
      ],
      [
       51.1824014,
       26.0006295
      ],
      [
       51.1819011,
       26.001349
      ],
      [
       51.1802001,
       26.0014389
      ],
      [
       51.1797999,
       26.0006295
      ],
      [
       51.18,
       26.0
      ]
     ]
    ]
   }
  }
 ]
}